OBJECT_NAME,OBJECT_ID,EPOCH,MEAN_MOTION,ECCENTRICITY,INCLINATION,RA_OF_ASC_NODE,ARG_OF_PERICENTER,MEAN_ANOMALY,EPHEMERIS_TYPE,CLASSIFICATION_TYPE,NORAD_CAT_ID,ELEMENT_SET_NO,REV_AT_EPOCH,BSTAR,MEAN_MOTION_DOT,MEAN_MOTION_DDOT
INTELSAT 11 (IS-11),2007-044B,2026-07-20T09:36:40.869792,0.99053138,.00044471,3.6499,78.2667,99.1031,244.7297,0,U,32253,999,6877,0,-.237E-5,0
WGS F1 (USA 195),2007-046A,2026-07-20T11:12:54.344160,1.00271234,.00001871,0.0161,79.0972,76.1968,268.6510,0,U,32258,999,5266,0,-.269E-5,0
SKYNET 5B,2007-056B,2026-07-20T06:24:18.074304,1.00269695,.0003614,5.3327,73.1059,42.9939,303.1219,0,U,32294,999,6852,0,.135E-5,0
ASTRA 4A,2007-057A,2026-07-20T09:43:17.736096,1.00274205,.00026586,0.0600,271.3067,213.5418,323.9542,0,U,32299,999,5198,0,.31E-6,0
HORIZONS-2,2007-063B,2026-07-20T11:04:02.692992,1.00272565,.0003642,2.6858,80.2195,19.5120,290.7123,0,U,32388,999,6814,0,-.256E-5,0
THURAYA-3,2008-001A,2026-07-20T03:09:54.560736,1.00273646,.00023272,6.0443,35.8282,79.7869,293.4772,0,U,32404,999,6782,0,.3E-7,0
THOR 5,2008-006A,2026-07-20T07:59:35.181312,1.00273361,.00025303,0.0597,250.1306,234.9397,292.1842,0,U,32487,999,6764,0,-.11E-6,0
AMC-14,2008-011A,2026-07-20T00:27:46.617984,1.00420288,.00390373,24.0481,20.1226,8.5687,357.3671,0,U,32708,999,6850,0,-.209E-5,0
DIRECTV 11,2008-013A,2026-07-20T10:47:26.598624,1.00271481,.00001159,0.0179,227.3612,222.3801,271.1466,0,U,32729,999,4592,0,-.127E-5,0
ICO G1,2008-016A,2026-07-20T11:09:50.478912,1.00272515,.00022043,5.5316,36.0305,76.5167,260.3142,0,U,32763,999,6687,0,-.176E-5,0
VINASAT-1,2008-018A,2026-07-20T12:33:38.670336,1.00271111,.00017495,0.0388,272.9467,216.1090,129.5827,0,U,32767,999,6692,0,-.329E-5,0
STAR ONE C2,2008-018B,2026-07-20T19:39:45.296928,1.00267544,.0002671,1.3242,82.1467,27.2652,59.1120,0,U,32768,999,6699,0,-.278E-5,0
AMOS-3,2008-022A,2026-07-20T18:34:11.514432,1.00490296,.0003209,0.5398,85.7531,81.9596,114.0038,0,U,32794,999,8267,0,-.37E-6,0
GALAXY 18 (G-18),2008-024A,2026-07-20T20:15:04.699296,1.00273975,.000296,0.0093,20.6972,100.1422,358.5326,0,U,32951,999,4619,0,.25E-6,0
ZHONGXING-9,2008-028A,2026-07-20T20:24:44.147808,1.00272809,.0003412,0.8530,84.9364,29.6193,222.6020,0,U,33051,999,6637,0,-.249E-5,0
SKYNET 5C,2008-030A,2026-07-20T19:53:21.491808,1.00272532,.0004359,3.8728,76.6412,48.8662,93.6435,0,U,33055,999,6629,0,-.143E-5,0
TURKSAT 3A,2008-030B,2026-07-20T18:27:42.136416,1.00273662,.0005006,0.0490,79.4939,20.3922,157.5552,0,U,33056,999,5269,0,.146E-5,0
ECHOSTAR 11,2008-035A,2026-07-20T14:19:02.669088,1.00271884,.0002392,1.0896,83.8020,27.4625,292.0510,0,U,33207,999,5154,0,-.59E-6,0
SUPERBIRD-C2,2008-038A,2026-07-20T20:37:05.463264,1.00271090,.0006406,2.4457,80.8463,40.1761,262.8757,0,U,33274,999,10606,0,-.308E-5,0
INMARSAT 4-F3,2008-039A,2026-07-20T16:05:05.229024,1.00270715,.0002656,4.3215,31.6975,97.1553,312.8711,0,U,33278,999,4688,0,-.143E-5,0
NIMIQ 4,2008-044A,2026-07-20T19:35:00.753216,1.00270276,.0001797,0.0219,58.5726,54.2258,37.5277,0,U,33373,999,6532,0,-.22E-5,0
GALAXY 19 (G-19),2008-045A,2026-07-20T19:30:31.184352,1.00271469,.0002605,0.0644,254.2176,236.5289,3.4573,0,U,33376,999,6524,0,-.139E-5,0
ASTRA 1M,2008-057A,2026-07-20T20:03:50.488128,1.00272629,.0004707,0.3808,82.8633,43.7407,132.3234,0,U,33436,999,4607,0,.12E-5,0
EUTELSAT HOTBIRD 13C,2008-065A,2026-07-20T18:01:19.520832,1.00269293,.000361,3.0345,78.7942,41.0786,38.6348,0,U,33459,999,4768,0,-.285E-5,0
EXPRESS-AM44,2009-007A,2026-07-20T19:55:13.814400,1.00271564,.0003804,3.5482,77.9869,31.9771,116.4111,0,U,33595,999,5262,0,-.92E-6,0
NSS-9,2009-008A,2026-07-20T19:07:55.850016,1.00270590,.0002329,1.3465,82.3293,22.9905,303.2914,0,U,33749,999,6385,0,.7E-6,0
TELSTAR 11N,2009-009A,2026-07-20T20:06:38.816064,1.00271956,.0002428,0.0124,32.6370,77.5895,92.4855,0,U,34111,999,4658,0,-.251E-5,0
WGS F2 (USA 204),2009-017A,2026-07-20T20:24:38.677824,1.00272668,.0000262,0.0151,68.7261,71.1998,162.3483,0,U,34713,999,4595,0,.68E-6,0
SES-7 (PROTOSTAR 2),2009-027A,2026-07-20T20:29:13.715808,1.00270956,.000128,0.0084,9.2070,183.6044,161.3514,0,U,34941,999,6296,0,-.345E-5,0
MEASAT-3A,2009-032A,2026-07-20T19:01:18.982848,1.00272413,.0002874,0.0229,355.5741,113.2124,275.0973,0,U,35362,999,836,0,-.111E-5,0
EWS-G3 (GOES 14),2009-033A,2026-07-20T20:32:58.358400,1.00095691,.0002152,1.7744,82.6268,39.1437,246.6058,0,U,35491,999,692,0,-.361E-5,0
FM-5,2009-034A,2026-07-20T19:33:38.383776,1.00271632,.0000984,0.0430,253.2255,124.5022,128.0934,0,U,35493,999,4698,0,-.2E-5,0
TERRESTAR-1,2009-035A,2026-07-20T14:18:47.693376,1.00270304,.0002507,5.2006,48.7621,63.9408,289.3700,0,U,35496,999,6246,0,-.6E-6,0
ASIASAT 5,2009-042A,2026-07-20T20:26:58.931808,1.00273574,.000155,0.0107,35.5359,59.0355,251.3282,0,U,35696,999,6204,0,-.308E-5,0
JCSAT-12 (JCSAT-RA),2009-044A,2026-07-20T20:35:58.071264,1.00270139,.0001076,0.0432,264.0221,280.7064,194.9286,0,U,35755,999,6194,0,-.328E-5,0
OPTUS D3,2009-044B,2026-07-20T09:09:18.709056,1.00272570,.00033304,0.8943,268.2122,211.6775,111.7220,0,U,35756,999,6189,0,-.147E-5,0
NIMIQ 5,2009-050A,2026-07-20T19:37:38.002080,1.00272079,.0002898,0.0268,275.1584,196.3096,48.8251,0,U,35873,999,6168,0,-.257E-5,0
AMAZONAS 2,2009-054A,2026-07-20T19:37:52.976928,1.00272778,.00034,1.9005,82.6206,31.9208,46.5215,0,U,35942,999,6152,0,-.261E-5,0
COMSATBW-1,2009-054B,2026-07-20T19:52:38.682336,1.00271881,.0002886,0.0653,156.1439,323.1953,180.4174,0,U,35943,999,6164,0,.25E-6,0
NSS-12,2009-058A,2026-07-20T20:14:35.261088,1.00273157,.0004912,0.0779,269.2988,173.3178,216.6313,0,U,36032,999,6125,0,.71E-6,0
THOR 6,2009-058B,2026-07-20T19:58:06.038112,1.00272636,.000183,0.0142,111.8544,11.5448,113.8757,0,U,36033,999,6134,0,-.1E-6,0
INTELSAT 14 (IS-14),2009-064A,2026-07-20T20:14:38.723136,1.00271917,.0002553,0.0179,49.4627,72.8186,74.9853,0,U,36097,999,6094,0,-.274E-5,0
EUTELSAT 36B,2009-065A,2026-07-20T20:12:42.941088,1.00271519,.00057,0.5736,81.3659,34.6382,176.2644,0,U,36101,999,6104,0,.112E-5,0
INTELSAT 15 (IS-15),2009-067A,2026-07-20T18:39:58.528800,1.00272390,.0002294,0.0176,52.8679,65.1597,185.6596,0,U,36106,999,4156,0,-.186E-5,0
WGS F3 (USA 211),2009-068A,2026-07-20T15:55:58.603008,1.00272726,.0000649,0.2943,85.6799,62.9386,258.8028,0,U,36108,999,4692,0,.63E-6,0
DIRECTV 12,2009-075A,2026-07-20T16:03:42.862176,1.00272533,.0000257,0.0426,226.7505,338.9125,230.9798,0,U,36131,999,4688,0,-.104E-5,0
BEIDOU-2 G1,2010-001A,2026-07-20T20:38:27.830976,1.00270343,.0001814,4.3709,60.2960,294.5751,33.8229,0,U,36287,999,6050,0,-.283E-5,0
SDO,2010-005A,2026-07-19T05:47:12.515712,1.00277469,.00017212,34.7163,85.8540,43.5863,152.2121,0,U,36395,999,6038,0,-.94E-6,0
INTELSAT 16 (IS-16),2010-006A,2026-07-20T11:03:17.764992,1.00271061,.00026471,0.0211,310.5715,187.8557,249.4181,0,U,36397,999,5998,0,-.246E-5,0
EWS-G2 (GOES 15),2010-008A,2026-07-20T19:52:38.682336,1.00269439,.0005446,1.3683,82.4006,53.6582,163.9489,0,U,36411,999,5997,0,.22E-6,0
ECHOSTAR 14,2010-010A,2026-07-20T17:41:43.901088,1.00273040,.0002068,0.0105,19.7404,84.0342,341.2542,0,U,36499,999,4688,0,0,0
SES-1,2010-016A,2026-07-20T16:04:12.812736,1.00272130,.0002614,0.0511,271.3857,201.5439,325.5601,0,U,36516,999,5936,0,-.115E-5,0
ASTRA 3B,2010-021A,2026-07-20T20:04:57.880128,1.00272738,.0004258,1.5533,83.1369,27.0855,153.1167,0,U,36581,999,5920,0,.136E-5,0
COMSATBW-2,2010-021B,2026-07-20T20:02:05.653824,1.00269695,.0002347,0.0408,155.7186,331.2941,125.3125,0,U,36582,999,5929,0,.88E-6,0
BEIDOU-2 G3,2010-024A,2026-07-20T16:55:40.816992,1.00273870,.0007259,4.5935,61.3612,358.9695,211.6234,0,U,36590,999,5910,0,-.138E-5,0
BADR-5,2010-025A,2026-07-20T20:16:38.719776,1.00277191,.0005789,0.0348,141.6154,54.8965,76.7370,0,U,36592,999,5355,0,.154E-5,0
COMS 1,2010-032A,2026-07-20T11:08:17.286144,0.99166737,.00114442,4.8887,74.9552,15.1250,316.3410,0,U,36744,999,5141,0,-.193E-5,0
ARABSAT-5A,2010-032B,2026-07-20T20:16:38.719776,1.00270014,.0005374,0.1240,68.7714,56.4199,148.0721,0,U,36745,999,5898,0,.153E-5,0
ECHOSTAR 15,2010-034A,2026-07-20T14:16:32.906784,1.00273639,.0001974,0.0339,275.7308,188.1196,289.8566,0,U,36792,999,5865,0,-.2E-7,0
BEIDOU-2 IGSO-1,2010-036A,2026-07-19T14:08:33.404064,1.00262639,.00586524,54.3073,162.6674,225.1805,228.5775,0,U,36828,999,5842,0,-.97E-6,0
NILESAT 201,2010-037A,2026-07-20T19:56:21.206400,1.00271063,.0005033,0.0360,205.1676,289.1958,96.3201,0,U,36830,999,5871,0,-.58E-6,0
RASCOM-QAF 1R,2010-037B,2026-07-20T19:59:13.430112,1.00271760,.00061,0.0169,79.6223,30.4990,131.1765,0,U,36831,999,5864,0,.18E-6,0
AEHF-1 (USA 214),2010-039A,2026-07-20T20:16:38.719776,1.00278099,.0003963,8.3020,67.6082,37.7152,167.4976,0,U,36868,999,5399,0,.142E-5,0
XM-5,2010-053A,2026-07-20T08:28:51.134304,1.00272300,.00012595,0.0624,264.8862,317.0834,88.1749,0,U,37185,999,5781,0,-.25E-6,0
BSAT-3B,2010-056B,2026-07-20T20:29:43.668096,1.00271368,.0002809,0.0620,241.4080,295.4412,179.0434,0,U,37207,999,5243,0,-.35E-5,0
BEIDOU-2 G4,2010-057A,2026-07-20T19:01:18.983712,1.00272814,.0005351,3.7287,68.7407,185.2691,129.8190,0,U,37210,999,5762,0,-.115E-5,0
SKYTERRA 1,2010-061A,2026-07-20T16:04:05.326176,1.00272101,.0002666,5.1946,50.7994,28.8372,358.4880,0,U,37218,999,5753,0,-.122E-5,0
HYLAS 1,2010-065A,2026-07-20T18:27:04.694976,1.00644431,.0001169,5.7264,72.6034,136.6990,45.8116,0,U,37237,999,722,0,.112E-5,0
INTELSAT 17 (IS-17),2010-065B,2026-07-20T20:17:07.376928,1.00272860,.0002576,0.0120,97.7779,35.0362,176.0825,0,U,37238,999,5358,0,-.2E-7,0
BEIDOU-2 IGSO-2,2010-068A,2026-07-19T20:07:19.149312,1.00272665,.00570323,47.4862,271.4234,214.1385,222.1771,0,U,37256,999,5712,0,-.205E-5,0
EUTELSAT KA-SAT 9A,2010-069A,2026-07-20T14:52:59.414304,1.00272370,.0004599,0.0621,9.4261,138.6308,22.5685,0,U,37258,999,4434,0,.61E-6,0
HISPASAT 30W-5,2010-070A,2026-07-20T16:24:18.387360,1.00269768,.0005874,0.0396,105.9007,23.3220,25.2730,0,U,37264,999,5352,0,-.217E-5,0
KOREASAT 6,2010-070B,2026-07-20T12:57:38.833920,1.00271525,.000276,0.0214,81.2399,49.0684,162.3006,0,U,37265,999,5710,0,-.113E-5,0
